{
  "type": "FeatureCollection",
  "features": [
    {
      "type": "Feature",
      "properties": {
        "norad_id": 28054,
        "name": "DMSP 5D-3 F16 (USA 172)",
        "group": "weather",
        "lat": 72.91161575159441,
        "lon": -33.16711397287821,
        "alt_km": 837.692473789366,
        "timestamp": "2025-12-06T11:28:10.671897+00:00",
        "meta_object_name": "DMSP 5D-3 F16 (USA 172)",
        "meta_object_id": "2003-048A",
        "meta_epoch": "2025-12-05T23:20:23.861760",
        "meta_mean_motion": 14.14420496,
        "meta_eccentricity": 0.0006775,
        "meta_inclination": 99.005,
        "meta_ra_of_asc_node": 357.3762,
        "meta_arg_of_pericenter": 341.6265,
        "meta_mean_anomaly": 41.704,
        "meta_ephemeris_type": 0,
        "meta_classification_type": "U",
        "meta_norad_cat_id": 28054,
        "meta_element_set_no": 999,
        "meta_rev_at_epoch": 14217,
        "meta_bstar": 0.00016797624,
        "meta_mean_motion_dot": 2.76e-06,
        "meta_mean_motion_ddot": 0,
        "tle_line1": "1 28054U 03048A   25339.97249840  .00000276  00000+0  16798-3 0  9997",
        "tle_line2": "2 28054  99.0050 357.3762 0006775 341.6265  41.7040 14.14420496142175"
      },
      "geometry": {
        "type": "Point",
        "coordinates": [
          -33.16711397287821,
          72.91161575159441
        ]
      }
    },
    {
      "type": "Feature",
      "properties": {
        "norad_id": 28912,
        "name": "METEOSAT-9 (MSG-2)",
        "group": "weather",
        "lat": -7.510397228874349,
        "lon": -67.11398881540754,
        "alt_km": 35775.729947465414,
        "timestamp": "2025-12-06T11:28:10.671947+00:00",
        "meta_object_name": "METEOSAT-9 (MSG-2)",
        "meta_object_id": "2005-049B",
        "meta_epoch": "2025-12-05T20:45:39.436128",
        "meta_mean_motion": 1.00272635,
        "meta_eccentricity": 0.00040045,
        "meta_inclination": 8.9234,
        "meta_ra_of_asc_node": 56.0387,
        "meta_arg_of_pericenter": 187.5839,
        "meta_mean_anomaly": 188.3106,
        "meta_ephemeris_type": 0,
        "meta_classification_type": "U",
        "meta_norad_cat_id": 28912,
        "meta_element_set_no": 999,
        "meta_rev_at_epoch": 506,
        "meta_bstar": 0,
        "meta_mean_motion_dot": 1.28e-06,
        "meta_mean_motion_ddot": 0,
        "tle_line1": "1 28912U 05049B   25339.86503977  .00000128  00000+0  00000+0 0  9996",
        "tle_line2": "2 28912   8.9234  56.0387 0004004 187.5839 188.3106  1.00272635  5062"
      },
      "geometry": {
        "type": "Point",
        "coordinates": [
          -67.11398881540754,
          -7.510397228874349
        ]
      }
    },
    {
      "type": "Feature",
      "properties": {
        "norad_id": 29522,
        "name": "DMSP 5D-3 F17 (USA 191)",
        "group": "weather",
        "lat": 4.6654319841059335,
        "lon": -14.721965610139197,
        "alt_km": 848.2445906066041,
        "timestamp": "2025-12-06T11:28:10.671965+00:00",
        "meta_object_name": "DMSP 5D-3 F17 (USA 191)",
        "meta_object_id": "2006-050A",
        "meta_epoch": "2025-12-05T23:34:01.922880",
        "meta_mean_motion": 14.14915141,
        "meta_eccentricity": 0.00092165,
        "meta_inclination": 98.7393,
        "meta_ra_of_asc_node": 345.5117,
        "meta_arg_of_pericenter": 245.8155,
        "meta_mean_anomaly": 114.2055,
        "meta_ephemeris_type": 0,
        "meta_classification_type": "U",
        "meta_norad_cat_id": 29522,
        "meta_element_set_no": 999,
        "meta_rev_at_epoch": 98509,
        "meta_bstar": 0.00019354392,
        "meta_mean_motion_dot": 3.31e-06,
        "meta_mean_motion_ddot": 0,
        "tle_line1": "1 29522U 06050A   25339.98196670  .00000331  00000+0  19354-3 0  9990",
        "tle_line2": "2 29522  98.7393 345.5117 0009216 245.8155 114.2055 14.14915141985095"
      },
      "geometry": {
        "type": "Point",
        "coordinates": [
          -14.721965610139197,
          4.6654319841059335
        ]
      }
    },
    {
      "type": "Feature",
      "properties": {
        "norad_id": 32958,
        "name": "FENGYUN 3A",
        "group": "weather",
        "lat": -24.46018955384177,
        "lon": -75.88413449156796,
        "alt_km": 826.5886834815474,
        "timestamp": "2025-12-06T11:28:10.671979+00:00",
        "meta_object_name": "FENGYUN 3A",
        "meta_object_id": "2008-026A",
        "meta_epoch": "2025-12-05T20:21:38.747232",
        "meta_mean_motion": 14.19511232,
        "meta_eccentricity": 0.00082342,
        "meta_inclination": 98.6685,
        "meta_ra_of_asc_node": 279.5205,
        "meta_arg_of_pericenter": 331.6672,
        "meta_mean_anomaly": 28.4056,
        "meta_ephemeris_type": 0,
        "meta_classification_type": "U",
        "meta_norad_cat_id": 32958,
        "meta_element_set_no": 999,
        "meta_rev_at_epoch": 90797,
        "meta_bstar": 0.00013516435,
        "meta_mean_motion_dot": 2.42e-06,
        "meta_mean_motion_ddot": 0,
        "tle_line1": "1 32958U 08026A   25339.84836513  .00000242  00000+0  13516-3 0  9999",
        "tle_line2": "2 32958  98.6685 279.5205 0008234 331.6672  28.4056 14.19511232907972"
      },
      "geometry": {
        "type": "Point",
        "coordinates": [
          -75.88413449156796,
          -24.46018955384177
        ]
      }
    },
    {
      "type": "Feature",
      "properties": {
        "norad_id": 35491,
        "name": "GOES 14",
        "group": "weather",
        "lat": 0.9603761904542774,
        "lon": 139.1787029896195,
        "alt_km": 35788.49548310724,
        "timestamp": "2025-12-06T11:28:10.671993+00:00",
        "meta_object_name": "GOES 14",
        "meta_object_id": "2009-033A",
        "meta_epoch": "2025-12-05T21:44:33.027648",
        "meta_mean_motion": 1.00272803,
        "meta_eccentricity": 0.00041829,
        "meta_inclination": 1.1805,
        "meta_ra_of_asc_node": 85.4889,
        "meta_arg_of_pericenter": 152.7205,
        "meta_mean_anomaly": 54.5599,
        "meta_ephemeris_type": 0,
        "meta_classification_type": "U",
        "meta_norad_cat_id": 35491,
        "meta_element_set_no": 999,
        "meta_rev_at_epoch": 465,
        "meta_bstar": 0,
        "meta_mean_motion_dot": -5.9e-07,
        "meta_mean_motion_ddot": 0,
        "tle_line1": "1 35491U 09033A   25339.90593782 -.00000059  00000+0  00000+0 0  9995",
        "tle_line2": "2 35491   1.1805  85.4889 0004182 152.7205  54.5599  1.00272803  4653"
      },
      "geometry": {
        "type": "Point",
        "coordinates": [
          139.1787029896195,
          0.9603761904542774
        ]
      }
    },
    {
      "type": "Feature",
      "properties": {
        "norad_id": 35951,
        "name": "DMSP 5D-3 F18 (USA 210)",
        "group": "weather",
        "lat": -54.6067789160042,
        "lon": 124.19475572713081,
        "alt_km": 858.129633437221,
        "timestamp": "2025-12-06T11:28:10.672006+00:00",
        "meta_object_name": "DMSP 5D-3 F18 (USA 210)",
        "meta_object_id": "2009-057A",
        "meta_epoch": "2025-12-05T22:28:45.150816",
        "meta_mean_motion": 14.14762932,
        "meta_eccentricity": 0.00121181,
        "meta_inclination": 98.8826,
        "meta_ra_of_asc_node": 316.3717,
        "meta_arg_of_pericenter": 80.4296,
        "meta_mean_anomaly": 279.8246,
        "meta_ephemeris_type": 0,
        "meta_classification_type": "U",
        "meta_norad_cat_id": 35951,
        "meta_element_set_no": 999,
        "meta_rev_at_epoch": 83226,
        "meta_bstar": 0.00023964145,
        "meta_mean_motion_dot": 4.18e-06,
        "meta_mean_motion_ddot": 0,
        "tle_line1": "1 35951U 09057A   25339.93663369  .00000418  00000+0  23964-3 0  9990",
        "tle_line2": "2 35951  98.8826 316.3717 0012118  80.4296 279.8246 14.14762932832264"
      },
      "geometry": {
        "type": "Point",
        "coordinates": [
          124.19475572713081,
          -54.6067789160042
        ]
      }
    },
    {
      "type": "Feature",
      "properties": {
        "norad_id": 36411,
        "name": "EWS-G2 (GOES 15)",
        "group": "weather",
        "lat": -0.556116703999831,
        "lon": -50.931647975757926,
        "alt_km": 35771.211423710825,
        "timestamp": "2025-12-06T11:28:10.672019+00:00",
        "meta_object_name": "EWS-G2 (GOES 15)",
        "meta_object_id": "2010-008A",
        "meta_epoch": "2025-12-05T21:34:38.508384",
        "meta_mean_motion": 1.00268214,
        "meta_eccentricity": 0.000603,
        "meta_inclination": 0.7962,
        "meta_ra_of_asc_node": 86.0409,
        "meta_arg_of_pericenter": 171.4967,
        "meta_mean_anomaly": 202.5422,
        "meta_ephemeris_type": 0,
        "meta_classification_type": "U",
        "meta_norad_cat_id": 36411,
        "meta_element_set_no": 999,
        "meta_rev_at_epoch": 5770,
        "meta_bstar": 0,
        "meta_mean_motion_dot": 4.7e-07,
        "meta_mean_motion_ddot": 0,
        "tle_line1": "1 36411U 10008A   25339.89905681  .00000047  00000+0  00000+0 0  9991",
        "tle_line2": "2 36411   0.7962  86.0409 0006030 171.4967 202.5422  1.00268214 57702"
      },
      "geometry": {
        "type": "Point",
        "coordinates": [
          -50.931647975757926,
          -0.556116703999831
        ]
      }
    }
  ]
}